{
  "norad_id": 65603,
  "name": "STARLINK-35250",
  "history": [
    {
      "epoch": "2026-03-28T18:14:45.015936Z",
      "apogee_km": 549.8656598476,
      "perigee_km": 549.1303606676101,
      "latitude_deg": 8.458004365462469e-06,
      "longitude_deg": 57.64156667506277,
      "height_km": 552.8539315034755,
      "semi_major_axis_km": 6927.635010257604,
      "eccentricity": 5.307e-05,
      "inclination_deg": 97.6021,
      "raan_deg": 157.5052,
      "arg_perigee_deg": 142.3689,
      "mean_anomaly_deg": 217.7575,
      "mean_motion_rev_day": 15.05654285
    },
    {
      "epoch": "2026-03-29T03:48:56.780928Z",
      "apogee_km": 549.846517713826,
      "perigee_km": 549.1024922381912,
      "latitude_deg": 4.3324933114582e-05,
      "longitude_deg": -85.90758201905824,
      "height_km": 552.8579448841764,
      "semi_major_axis_km": 6927.611504976008,
      "eccentricity": 5.37e-05,
      "inclination_deg": 97.602,
      "raan_deg": 157.8981,
      "arg_perigee_deg": 148.916,
      "mean_anomaly_deg": 211.2099,
      "mean_motion_rev_day": 15.05661948
    },
    {
      "epoch": "2026-03-30T03:44:26.394720Z",
      "apogee_km": 550.0661159981428,
      "perigee_km": 548.8316201964471,
      "latitude_deg": 4.641874045701115e-05,
      "longitude_deg": -84.78243305134703,
      "height_km": 552.9403903655805,
      "semi_major_axis_km": 6927.585868097294,
      "eccentricity": 8.91e-05,
      "inclination_deg": 97.6006,
      "raan_deg": 158.8792,
      "arg_perigee_deg": 133.7929,
      "mean_anomaly_deg": 226.3372,
      "mean_motion_rev_day": 15.05670306
    },
    {
      "epoch": "2026-03-30T03:44:26.395584Z",
      "apogee_km": 550.0659774464248,
      "perigee_km": 548.8317587481642,
      "latitude_deg": 4.8071436331971145e-05,
      "longitude_deg": -84.7824368805308,
      "height_km": 552.9402944590283,
      "semi_major_axis_km": 6927.585868097294,
      "eccentricity": 8.908e-05,
      "inclination_deg": 97.6006,
      "raan_deg": 158.8792,
      "arg_perigee_deg": 133.7929,
      "mean_anomaly_deg": 226.3372,
      "mean_motion_rev_day": 15.05670306
    },
    {
      "epoch": "2026-03-30T18:05:44.912256Z",
      "apogee_km": 550.1612363734139,
      "perigee_km": 548.8780958057205,
      "latitude_deg": 1.7123532973036536e-05,
      "longitude_deg": 59.8922703215009,
      "height_km": 552.7589657187964,
      "semi_major_axis_km": 6927.656666089567,
      "eccentricity": 9.261e-05,
      "inclination_deg": 97.6022,
      "raan_deg": 159.4706,
      "arg_perigee_deg": 105.8725,
      "mean_anomaly_deg": 254.2604,
      "mean_motion_rev_day": 15.05647225
    },
    {
      "epoch": "2026-03-31T14:49:50.833344Z",
      "apogee_km": 549.7508442752423,
      "perigee_km": 549.253439784844,
      "latitude_deg": -3.232264927719625e-05,
      "longitude_deg": 108.86625154551221,
      "height_km": 552.7899321368657,
      "semi_major_axis_km": 6927.639142030042,
      "eccentricity": 3.59e-05,
      "inclination_deg": 97.602,
      "raan_deg": 160.3208,
      "arg_perigee_deg": 206.6317,
      "mean_anomaly_deg": 153.4891,
      "mean_motion_rev_day": 15.05652938
    },
    {
      "epoch": "2026-04-01T03:35:26.889792Z",
      "apogee_km": 549.8861209764591,
      "perigee_km": 549.0966484457367,
      "latitude_deg": -4.971896653556368e-06,
      "longitude_deg": -82.53322178711105,
      "height_km": 552.9461122901204,
      "semi_major_axis_km": 6927.628384711097,
      "eccentricity": 5.698e-05,
      "inclination_deg": 97.603,
      "raan_deg": 160.8456,
      "arg_perigee_deg": 189.4814,
      "mean_anomaly_deg": 170.6402,
      "mean_motion_rev_day": 15.05656445
    },
    {
      "epoch": "2026-04-02T05:06:38.555136Z",
      "apogee_km": 549.7953049215366,
      "perigee_km": 549.1211113558793,
      "latitude_deg": 5.897138038957594e-05,
      "longitude_deg": -105.33200001875824,
      "height_km": 552.8603957214829,
      "semi_major_axis_km": 6927.595208138708,
      "eccentricity": 4.866e-05,
      "inclination_deg": 97.6026,
      "raan_deg": 161.8935,
      "arg_perigee_deg": 178.3466,
      "mean_anomaly_deg": 181.7763,
      "mean_motion_rev_day": 15.05667261
    },
    {
      "epoch": "2026-04-03T17:47:44.474208Z",
      "apogee_km": 549.7476138046459,
      "perigee_km": 549.3527356356863,
      "latitude_deg": -9.361585662380633e-06,
      "longitude_deg": 64.39324825364932,
      "height_km": 552.8122784580604,
      "semi_major_axis_km": 6927.687174720166,
      "eccentricity": 2.85e-05,
      "inclination_deg": 97.6021,
      "raan_deg": 163.4,
      "arg_perigee_deg": 175.8837,
      "mean_anomaly_deg": 184.2392,
      "mean_motion_rev_day": 15.05637279
    },
    {
      "epoch": "2026-04-04T11:20:27.405024Z",
      "apogee_km": 549.6105730900035,
      "perigee_km": 549.4595498390636,
      "latitude_deg": 4.596979191422226e-06,
      "longitude_deg": 161.2141093671471,
      "height_km": 552.667298116375,
      "semi_major_axis_km": 6927.672061464534,
      "eccentricity": 1.09e-05,
      "inclination_deg": 97.6023,
      "raan_deg": 164.1203,
      "arg_perigee_deg": 207.4877,
      "mean_anomaly_deg": 152.6344,
      "mean_motion_rev_day": 15.05642206
    },
    {
      "epoch": "2026-04-05T04:53:08.211264Z",
      "apogee_km": 549.5564774455133,
      "perigee_km": 549.0565931200072,
      "latitude_deg": -1.824705938226923e-05,
      "longitude_deg": -101.95684839486125,
      "height_km": 552.3196028298064,
      "semi_major_axis_km": 6927.4435352827595,
      "eccentricity": 3.608e-05,
      "inclination_deg": 97.6016,
      "raan_deg": 164.8399,
      "arg_perigee_deg": 78.0682,
      "mean_anomaly_deg": 282.0585,
      "mean_motion_rev_day": 15.0571671
    }
  ]
}